export const gpsOMMs = [
{
    OBJECT_NAME: "GSAT0101 (GALILEO-PFM)",
    OBJECT_ID: "11060A",
    EPOCH: "2025-07-01T00:00:00.070532",
    MEAN_MOTION: 1.70475897,
    ECCENTRICITY: 0.0002816,
    INCLINATION: 57.0926,
    RA_OF_ASC_NODE: 351.2807,
    ARG_OF_PERICENTER: 54.407,
    MEAN_ANOMALY: 305.6195,
    BSTAR: 0.0,
    MEAN_MOTION_DOT: -9.8e-07,
    MEAN_MOTION_DDOT: 0.0,
    NORAD_CAT_ID: 37846
},
{
    OBJECT_NAME: "GSAT0102 (GALILEO-FM2)",
    OBJECT_ID: "11060B",
    EPOCH: "2025-06-30T00:00:00.410969",
    MEAN_MOTION: 1.70476022,
    ECCENTRICITY: 0.0002699,
    INCLINATION: 57.0934,
    RA_OF_ASC_NODE: 351.2989,
    ARG_OF_PERICENTER: 11.0765,
    MEAN_ANOMALY: 349.5191,
    BSTAR: 0.0,
    MEAN_MOTION_DOT: -9.9e-07,
    MEAN_MOTION_DDOT: 0.0,
    NORAD_CAT_ID: 37847
},
{
    OBJECT_NAME: "GSAT0103 (GALILEO-FM3)",
    OBJECT_ID: "12055A",
    EPOCH: "2025-07-01T00:00:00.110282",
    MEAN_MOTION: 1.70473548,
    ECCENTRICITY: 0.0004482,
    INCLINATION: 55.5962,
    RA_OF_ASC_NODE: 111.1898,
    ARG_OF_PERICENTER: 295.3199,
    MEAN_ANOMALY: 64.6183,
    BSTAR: 0.0,
    MEAN_MOTION_DOT: -1.2e-07,
    MEAN_MOTION_DDOT: 0.0,
    NORAD_CAT_ID: 38857
},
{
    OBJECT_NAME: "GSAT0201 (GALILEO 5)",
    OBJECT_ID: "14050A",
    EPOCH: "2025-07-01T00:00:00.536427",
    MEAN_MOTION: 1.85519848,
    ECCENTRICITY: 0.1633843,
    INCLINATION: 49.2569,
    RA_OF_ASC_NODE: 287.7438,
    ARG_OF_PERICENTER: 165.9309,
    MEAN_ANOMALY: 199.2707,
    BSTAR: 0.0,
    MEAN_MOTION_DOT: -1e-06,
    MEAN_MOTION_DDOT: 0.0,
    NORAD_CAT_ID: 40128
},
{
    OBJECT_NAME: "GSAT0202 (GALILEO 6)",
    OBJECT_ID: "14050B",
    EPOCH: "2025-06-30T00:00:00.176329",
    MEAN_MOTION: 1.85520458,
    ECCENTRICITY: 0.1633872,
    INCLINATION: 49.274,
    RA_OF_ASC_NODE: 286.8808,
    ARG_OF_PERICENTER: 166.647,
    MEAN_ANOMALY: 198.3009,
    BSTAR: 0.0,
    MEAN_MOTION_DOT: -9.2e-07,
    MEAN_MOTION_DDOT: 0.0,
    NORAD_CAT_ID: 40129
},
{
    OBJECT_NAME: "GSAT0203 (GALILEO 7)",
    OBJECT_ID: "15017A",
    EPOCH: "2025-06-30T00:00:00.262601",
    MEAN_MOTION: 1.70476237,
    ECCENTRICITY: 0.0002106,
    INCLINATION: 56.887,
    RA_OF_ASC_NODE: 351.1852,
    ARG_OF_PERICENTER: 258.3819,
    MEAN_ANOMALY: 101.5932,
    BSTAR: 0.0,
    MEAN_MOTION_DOT: -1e-06,
    MEAN_MOTION_DDOT: 0.0,
    NORAD_CAT_ID: 40544
},
{
    OBJECT_NAME: "GSAT0204 (GALILEO 8)",
    OBJECT_ID: "15017B",
    EPOCH: "2025-06-29T00:00:00.344419",
    MEAN_MOTION: 1.70475785,
    ECCENTRICITY: 0.0002168,
    INCLINATION: 56.8933,
    RA_OF_ASC_NODE: 351.2272,
    ARG_OF_PERICENTER: 230.4731,
    MEAN_ANOMALY: 129.5054,
    BSTAR: 0.0,
    MEAN_MOTION_DOT: -1.01e-06,
    MEAN_MOTION_DDOT: 0.0,
    NORAD_CAT_ID: 40545
},
{
    OBJECT_NAME: "GSAT0205 (GALILEO 9)",
    OBJECT_ID: "15045A",
    EPOCH: "2025-07-01T00:00:00.458871",
    MEAN_MOTION: 1.70474013,
    ECCENTRICITY: 0.0002748,
    INCLINATION: 55.0612,
    RA_OF_ASC_NODE: 231.2926,
    ARG_OF_PERICENTER: 17.2846,
    MEAN_ANOMALY: 342.8004,
    BSTAR: 0.0,
    MEAN_MOTION_DOT: 2.7e-07,
    MEAN_MOTION_DDOT: 0.0,
    NORAD_CAT_ID: 40889
},
{
    OBJECT_NAME: "GSAT0206 (GALILEO 10)",
    OBJECT_ID: "15045B",
    EPOCH: "2025-06-29T00:00:00.919784",
    MEAN_MOTION: 1.70472965,
    ECCENTRICITY: 0.0009248,
    INCLINATION: 55.0606,
    RA_OF_ASC_NODE: 231.3295,
    ARG_OF_PERICENTER: 277.6035,
    MEAN_ANOMALY: 82.3706,
    BSTAR: 0.0,
    MEAN_MOTION_DOT: 2.1e-07,
    MEAN_MOTION_DDOT: 0.0,
    NORAD_CAT_ID: 40890
},
{
    OBJECT_NAME: "GSAT0209 (GALILEO 12)",
    OBJECT_ID: "15079A",
    EPOCH: "2025-06-30T00:00:00.088353",
    MEAN_MOTION: 1.70473812,
    ECCENTRICITY: 0.0004948,
    INCLINATION: 55.6158,
    RA_OF_ASC_NODE: 110.9306,
    ARG_OF_PERICENTER: 334.9487,
    MEAN_ANOMALY: 25.0098,
    BSTAR: 0.0,
    MEAN_MOTION_DOT: -1.1e-07,
    MEAN_MOTION_DDOT: 0.0,
    NORAD_CAT_ID: 41174
},
{
    OBJECT_NAME: "GSAT0208 (GALILEO 11)",
    OBJECT_ID: "15079B",
    EPOCH: "2025-06-30T00:00:00.308375",
    MEAN_MOTION: 1.70473775,
    ECCENTRICITY: 0.0004312,
    INCLINATION: 55.6141,
    RA_OF_ASC_NODE: 110.9217,
    ARG_OF_PERICENTER: 336.6081,
    MEAN_ANOMALY: 23.3554,
    BSTAR: 0.0,
    MEAN_MOTION_DOT: -1.2e-07,
    MEAN_MOTION_DDOT: 0.0,
    NORAD_CAT_ID: 41175
},
{
    OBJECT_NAME: "GSAT0211 (GALILEO 14)",
    OBJECT_ID: "16030A",
    EPOCH: "2025-06-30T00:00:00.432074",
    MEAN_MOTION: 1.7047405,
    ECCENTRICITY: 0.0002748,
    INCLINATION: 55.2099,
    RA_OF_ASC_NODE: 231.3684,
    ARG_OF_PERICENTER: 313.242,
    MEAN_ANOMALY: 46.8126,
    BSTAR: 0.0,
    MEAN_MOTION_DOT: 2.3e-07,
    MEAN_MOTION_DDOT: 0.0,
    NORAD_CAT_ID: 41549
},
{
    OBJECT_NAME: "GSAT0210 (GALILEO 13)",
    OBJECT_ID: "16030B",
    EPOCH: "2025-06-29T00:00:00.516697",
    MEAN_MOTION: 1.7047408,
    ECCENTRICITY: 0.0004275,
    INCLINATION: 55.2095,
    RA_OF_ASC_NODE: 231.3918,
    ARG_OF_PERICENTER: 234.4913,
    MEAN_ANOMALY: 125.5496,
    BSTAR: 0.0,
    MEAN_MOTION_DOT: 2.1e-07,
    MEAN_MOTION_DDOT: 0.0,
    NORAD_CAT_ID: 41550
},
{
    OBJECT_NAME: "GSAT0207 (GALILEO 15)",
    OBJECT_ID: "16069A",
    EPOCH: "2025-06-30T00:00:00.381750",
    MEAN_MOTION: 1.70473746,
    ECCENTRICITY: 0.0004846,
    INCLINATION: 55.2837,
    RA_OF_ASC_NODE: 110.8319,
    ARG_OF_PERICENTER: 321.4057,
    MEAN_ANOMALY: 38.543,
    BSTAR: 0.0,
    MEAN_MOTION_DOT: -1.2e-07,
    MEAN_MOTION_DDOT: 0.0,
    NORAD_CAT_ID: 41859
},
{
    OBJECT_NAME: "GSAT0212 (GALILEO 16)",
    OBJECT_ID: "16069B",
    EPOCH: "2025-07-01T00:00:00.408779",
    MEAN_MOTION: 1.70473797,
    ECCENTRICITY: 0.0003949,
    INCLINATION: 55.2815,
    RA_OF_ASC_NODE: 110.7991,
    ARG_OF_PERICENTER: 354.6589,
    MEAN_ANOMALY: 5.3222,
    BSTAR: 0.0,
    MEAN_MOTION_DOT: -1.4e-07,
    MEAN_MOTION_DDOT: 0.0,
    NORAD_CAT_ID: 41860
},
{
    OBJECT_NAME: "GSAT0213 (GALILEO 17)",
    OBJECT_ID: "16069C",
    EPOCH: "2025-07-01T00:00:00.776679",
    MEAN_MOTION: 1.70474365,
    ECCENTRICITY: 0.0004596,
    INCLINATION: 55.2842,
    RA_OF_ASC_NODE: 110.7962,
    ARG_OF_PERICENTER: 303.5857,
    MEAN_ANOMALY: 56.3561,
    BSTAR: 0.0,
    MEAN_MOTION_DOT: -1.4e-07,
    MEAN_MOTION_DDOT: 0.0,
    NORAD_CAT_ID: 41861
},
{
    OBJECT_NAME: "GSAT0214 (GALILEO 18)",
    OBJECT_ID: "16069D",
    EPOCH: "2025-06-30T00:00:00.162625",
    MEAN_MOTION: 1.70474015,
    ECCENTRICITY: 0.0003861,
    INCLINATION: 55.2819,
    RA_OF_ASC_NODE: 110.834,
    ARG_OF_PERICENTER: 308.8428,
    MEAN_ANOMALY: 51.1054,
    BSTAR: 0.0,
    MEAN_MOTION_DOT: -1.2e-07,
    MEAN_MOTION_DDOT: 0.0,
    NORAD_CAT_ID: 41862
},
{
    OBJECT_NAME: "GSAT0215 (GALILEO 19)",
    OBJECT_ID: "17079A",
    EPOCH: "2025-06-30T00:00:00.652719",
    MEAN_MOTION: 1.70474436,
    ECCENTRICITY: 0.0004087,
    INCLINATION: 55.188,
    RA_OF_ASC_NODE: 231.1786,
    ARG_OF_PERICENTER: 259.7431,
    MEAN_ANOMALY: 100.2876,
    BSTAR: 0.0,
    MEAN_MOTION_DOT: 2.4e-07,
    MEAN_MOTION_DDOT: 0.0,
    NORAD_CAT_ID: 43055
},
{
    OBJECT_NAME: "GSAT0216 (GALILEO 20)",
    OBJECT_ID: "17079B",
    EPOCH: "2025-07-02T00:00:00.117280",
    MEAN_MOTION: 1.7047484,
    ECCENTRICITY: 0.0004317,
    INCLINATION: 55.1873,
    RA_OF_ASC_NODE: 231.1384,
    ARG_OF_PERICENTER: 269.1961,
    MEAN_ANOMALY: 90.8302,
    BSTAR: 0.0,
    MEAN_MOTION_DOT: 3.2e-07,
    MEAN_MOTION_DDOT: 0.0,
    NORAD_CAT_ID: 43056
},
{
    OBJECT_NAME: "GSAT0217 (GALILEO 21)",
    OBJECT_ID: "17079C",
    EPOCH: "2025-06-29T00:00:00.991591",
    MEAN_MOTION: 1.70474264,
    ECCENTRICITY: 0.0006287,
    INCLINATION: 55.1857,
    RA_OF_ASC_NODE: 231.1953,
    ARG_OF_PERICENTER: 276.7027,
    MEAN_ANOMALY: 83.3045,
    BSTAR: 0.0,
    MEAN_MOTION_DOT: 2.2e-07,
    MEAN_MOTION_DDOT: 0.0,
    NORAD_CAT_ID: 43057
},
{
    OBJECT_NAME: "GSAT0218 (GALILEO 22)",
    OBJECT_ID: "17079D",
    EPOCH: "2025-07-01T00:00:00.384819",
    MEAN_MOTION: 1.7047467,
    ECCENTRICITY: 0.0005189,
    INCLINATION: 55.1857,
    RA_OF_ASC_NODE: 231.1545,
    ARG_OF_PERICENTER: 266.6391,
    MEAN_ANOMALY: 93.3772,
    BSTAR: 0.0,
    MEAN_MOTION_DOT: 2.7e-07,
    MEAN_MOTION_DDOT: 0.0,
    NORAD_CAT_ID: 43058
},
{
    OBJECT_NAME: "GSAT0221 (GALILEO 25)",
    OBJECT_ID: "18060A",
    EPOCH: "2025-07-01T00:00:00.873854",
    MEAN_MOTION: 1.70476136,
    ECCENTRICITY: 0.0002414,
    INCLINATION: 57.2672,
    RA_OF_ASC_NODE: 351.2375,
    ARG_OF_PERICENTER: 291.2471,
    MEAN_ANOMALY: 68.7287,
    BSTAR: 0.0,
    MEAN_MOTION_DOT: -9.6e-07,
    MEAN_MOTION_DDOT: 0.0,
    NORAD_CAT_ID: 43564
},
{
    OBJECT_NAME: "GSAT0222 (GALILEO 26)",
    OBJECT_ID: "18060B",
    EPOCH: "2025-06-29T00:00:00.746608",
    MEAN_MOTION: 1.70475795,
    ECCENTRICITY: 0.0002147,
    INCLINATION: 57.2693,
    RA_OF_ASC_NODE: 351.2973,
    ARG_OF_PERICENTER: 232.7453,
    MEAN_ANOMALY: 127.2332,
    BSTAR: 0.0,
    MEAN_MOTION_DOT: -1e-06,
    MEAN_MOTION_DDOT: 0.0,
    NORAD_CAT_ID: 43565
},
{
    OBJECT_NAME: "GSAT0219 (GALILEO 23)",
    OBJECT_ID: "18060C",
    EPOCH: "2025-07-01T00:00:00.141122",
    MEAN_MOTION: 1.70476048,
    ECCENTRICITY: 0.0001744,
    INCLINATION: 57.2704,
    RA_OF_ASC_NODE: 351.2616,
    ARG_OF_PERICENTER: 311.9324,
    MEAN_ANOMALY: 48.0531,
    BSTAR: 0.0,
    MEAN_MOTION_DOT: -9.8e-07,
    MEAN_MOTION_DDOT: 0.0,
    NORAD_CAT_ID: 43566
},
{
    OBJECT_NAME: "GSAT0220 (GALILEO 24)",
    OBJECT_ID: "18060D",
    EPOCH: "2025-07-01T00:00:00.361965",
    MEAN_MOTION: 1.70476098,
    ECCENTRICITY: 0.0001799,
    INCLINATION: 57.2694,
    RA_OF_ASC_NODE: 351.2556,
    ARG_OF_PERICENTER: 294.6099,
    MEAN_ANOMALY: 65.372,
    BSTAR: 0.0,
    MEAN_MOTION_DOT: -9.7e-07,
    MEAN_MOTION_DDOT: 0.0,
    NORAD_CAT_ID: 43567
},
{
    OBJECT_NAME: "GSAT0223 (GALILEO 27)",
    OBJECT_ID: "21116A",
    EPOCH: "2025-07-01T00:00:00.209997",
    MEAN_MOTION: 1.70476205,
    ECCENTRICITY: 0.0002131,
    INCLINATION: 57.2597,
    RA_OF_ASC_NODE: 351.1513,
    ARG_OF_PERICENTER: 179.2577,
    MEAN_ANOMALY: 178.1047,
    BSTAR: 0.0,
    MEAN_MOTION_DOT: -9.8e-07,
    MEAN_MOTION_DDOT: 0.0,
    NORAD_CAT_ID: 49809
},
{
    OBJECT_NAME: "GSAT0224 (GALILEO 28)",
    OBJECT_ID: "21116B",
    EPOCH: "2025-06-28T00:00:00.978683",
    MEAN_MOTION: 1.70476098,
    ECCENTRICITY: 0.0001196,
    INCLINATION: 57.2601,
    RA_OF_ASC_NODE: 351.2096,
    ARG_OF_PERICENTER: 146.8992,
    MEAN_ANOMALY: 33.6136,
    BSTAR: 0.0,
    MEAN_MOTION_DOT: -1e-06,
    MEAN_MOTION_DDOT: 0.0,
    NORAD_CAT_ID: 49810
},
{
    OBJECT_NAME: "GSAT0225 (GALILEO 29)",
    OBJECT_ID: "24079A",
    EPOCH: "2025-07-01T00:00:00.332027",
    MEAN_MOTION: 1.7047433,
    ECCENTRICITY: 0.0001631,
    INCLINATION: 54.9024,
    RA_OF_ASC_NODE: 110.8954,
    ARG_OF_PERICENTER: 272.3953,
    MEAN_ANOMALY: 264.6099,
    BSTAR: 0.0,
    MEAN_MOTION_DOT: -1.4e-07,
    MEAN_MOTION_DDOT: 0.0,
    NORAD_CAT_ID: 59598
},
{
    OBJECT_NAME: "GSAT0227 (GALILEO 30)",
    OBJECT_ID: "24079C",
    EPOCH: "2025-06-29T00:00:00.467216",
    MEAN_MOTION: 1.704741,
    ECCENTRICITY: 0.0001503,
    INCLINATION: 54.8965,
    RA_OF_ASC_NODE: 110.9474,
    ARG_OF_PERICENTER: 57.4796,
    MEAN_ANOMALY: 302.5144,
    BSTAR: 0.0,
    MEAN_MOTION_DOT: -1.3e-07,
    MEAN_MOTION_DDOT: 0.0,
    NORAD_CAT_ID: 59600
},
{
    OBJECT_NAME: "GSAT0232 (GALILEO 32)",
    OBJECT_ID: "24167A",
    EPOCH: "2025-07-02T00:00:00.131021",
    MEAN_MOTION: 1.70474341,
    ECCENTRICITY: 0.0005114,
    INCLINATION: 55.2969,
    RA_OF_ASC_NODE: 230.9172,
    ARG_OF_PERICENTER: 226.2644,
    MEAN_ANOMALY: 163.6143,
    BSTAR: 0.0,
    MEAN_MOTION_DOT: 3.3e-07,
    MEAN_MOTION_DDOT: 0.0,
    NORAD_CAT_ID: 61182
},
{
    OBJECT_NAME: "GSAT0226 (GALILEO 31)",
    OBJECT_ID: "24167B",
    EPOCH: "2025-06-27T00:00:00.790321",
    MEAN_MOTION: 1.70474321,
    ECCENTRICITY: 0.0002883,
    INCLINATION: 55.2972,
    RA_OF_ASC_NODE: 231.0419,
    ARG_OF_PERICENTER: 217.374,
    MEAN_ANOMALY: 141.1071,
    BSTAR: 0.0,
    MEAN_MOTION_DOT: 2.7e-07,
    MEAN_MOTION_DDOT: 0.0,
    NORAD_CAT_ID: 61183
}
];
